{
  "type": "FeatureCollection",
  "features": [
    {
      "type": "Feature",
      "geometry": {
        "type": "Point",
        "coordinates": [
          -122.34,
          47.6062
        ]
      },
      "properties": {
        "timestamp": "2026-06-08T09:00:00Z",
        "CO": 0.142,
        "NO": 16.4,
        "NO2": 16.1,
        "O3": 27.2,
        "CO2": 440.0,
        "PM2_5": 9.5,
        "PM10": 22.5,
        "AQHI": 2.3
      }
    },
    {
      "type": "Feature",
      "geometry": {
        "type": "Point",
        "coordinates": [
          -122.358488,
          47.617254
        ]
      },
      "properties": {
        "timestamp": "2026-06-08T09:15:00Z",
        "CO": 0.143,
        "NO": 17.0,
        "NO2": 16.8,
        "O3": 26.9,
        "CO2": 444.0,
        "PM2_5": 11.3,
        "PM10": 25.2,
        "AQHI": 2.5
      }
    },
    {
      "type": "Feature",
      "geometry": {
        "type": "Point",
        "coordinates": [
          -122.376976,
          47.628308
        ]
      },
      "properties": {
        "timestamp": "2026-06-08T09:30:00Z",
        "CO": 0.141,
        "NO": 16.7,
        "NO2": 17.2,
        "O3": 28.4,
        "CO2": 442.0,
        "PM2_5": 10.9,
        "PM10": 25.0,
        "AQHI": 2.4
      }
    },
    {
      "type": "Feature",
      "geometry": {
        "type": "Point",
        "coordinates": [
          -122.395465,
          47.639362
        ]
      },
      "properties": {
        "timestamp": "2026-06-08T09:45:00Z",
        "CO": 0.137,
        "NO": 17.1,
        "NO2": 17.3,
        "O3": 28.2,
        "CO2": 441.0,
        "PM2_5": 11.2,
        "PM10": 25.2,
        "AQHI": 2.5
      }
    },
    {
      "type": "Feature",
      "geometry": {
        "type": "Point",
        "coordinates": [
          -122.413953,
          47.650416
        ]
      },
      "properties": {
        "timestamp": "2026-06-08T10:00:00Z",
        "CO": 0.147,
        "NO": 16.0,
        "NO2": 16.9,
        "O3": 25.6,
        "CO2": 435.0,
        "PM2_5": 10.3,
        "PM10": 22.6,
        "AQHI": 2.4
      }
    },
    {
      "type": "Feature",
      "geometry": {
        "type": "Point",
        "coordinates": [
          -122.432441,
          47.66147
        ]
      },
      "properties": {
        "timestamp": "2026-06-08T10:15:00Z",
        "CO": 0.145,
        "NO": 16.6,
        "NO2": 15.0,
        "O3": 28.9,
        "CO2": 438.0,
        "PM2_5": 10.3,
        "PM10": 23.1,
        "AQHI": 2.4
      }
    },
    {
      "type": "Feature",
      "geometry": {
        "type": "Point",
        "coordinates": [
          -122.44745,
          47.674653
        ]
      },
      "properties": {
        "timestamp": "2026-06-08T10:30:00Z",
        "CO": 0.138,
        "NO": 15.6,
        "NO2": 15.4,
        "O3": 28.6,
        "CO2": 440.0,
        "PM2_5": 10.1,
        "PM10": 22.6,
        "AQHI": 2.3
      }
    },
    {
      "type": "Feature",
      "geometry": {
        "type": "Point",
        "coordinates": [
          -122.461899,
          47.688177
        ]
      },
      "properties": {
        "timestamp": "2026-06-08T10:45:00Z",
        "CO": 0.13,
        "NO": 13.2,
        "NO2": 14.2,
        "O3": 28.2,
        "CO2": 442.0,
        "PM2_5": 8.6,
        "PM10": 19.7,
        "AQHI": 2.2
      }
    },
    {
      "type": "Feature",
      "geometry": {
        "type": "Point",
        "coordinates": [
          -122.476348,
          47.701702
        ]
      },
      "properties": {
        "timestamp": "2026-06-08T11:00:00Z",
        "CO": 0.134,
        "NO": 13.3,
        "NO2": 13.0,
        "O3": 29.9,
        "CO2": 438.0,
        "PM2_5": 8.4,
        "PM10": 19.0,
        "AQHI": 2.2
      }
    },
    {
      "type": "Feature",
      "geometry": {
        "type": "Point",
        "coordinates": [
          -122.490798,
          47.715226
        ]
      },
      "properties": {
        "timestamp": "2026-06-08T11:15:00Z",
        "CO": 0.123,
        "NO": 11.4,
        "NO2": 10.4,
        "O3": 29.5,
        "CO2": 433.0,
        "PM2_5": 7.5,
        "PM10": 19.8,
        "AQHI": 2.1
      }
    },
    {
      "type": "Feature",
      "geometry": {
        "type": "Point",
        "coordinates": [
          -122.505247,
          47.728751
        ]
      },
      "properties": {
        "timestamp": "2026-06-08T11:30:00Z",
        "CO": 0.124,
        "NO": 11.0,
        "NO2": 10.6,
        "O3": 29.0,
        "CO2": 429.0,
        "PM2_5": 6.5,
        "PM10": 18.3,
        "AQHI": 2.0
      }
    },
    {
      "type": "Feature",
      "geometry": {
        "type": "Point",
        "coordinates": [
          -122.519696,
          47.742276
        ]
      },
      "properties": {
        "timestamp": "2026-06-08T11:45:00Z",
        "CO": 0.115,
        "NO": 7.6,
        "NO2": 9.6,
        "O3": 29.2,
        "CO2": 428.0,
        "PM2_5": 5.1,
        "PM10": 14.1,
        "AQHI": 1.9
      }
    },
    {
      "type": "Feature",
      "geometry": {
        "type": "Point",
        "coordinates": [
          -122.534146,
          47.7558
        ]
      },
      "properties": {
        "timestamp": "2026-06-08T12:00:00Z",
        "CO": 0.111,
        "NO": 6.8,
        "NO2": 8.8,
        "O3": 30.4,
        "CO2": 427.0,
        "PM2_5": 5.9,
        "PM10": 17.6,
        "AQHI": 1.9
      }
    },
    {
      "type": "Feature",
      "geometry": {
        "type": "Point",
        "coordinates": [
          -122.548595,
          47.769325
        ]
      },
      "properties": {
        "timestamp": "2026-06-08T12:15:00Z",
        "CO": 0.115,
        "NO": 5.5,
        "NO2": 6.4,
        "O3": 32.0,
        "CO2": 426.0,
        "PM2_5": 6.2,
        "PM10": 16.8,
        "AQHI": 1.9
      }
    },
    {
      "type": "Feature",
      "geometry": {
        "type": "Point",
        "coordinates": [
          -122.561084,
          47.783433
        ]
      },
      "properties": {
        "timestamp": "2026-06-08T12:30:00Z",
        "CO": 0.118,
        "NO": 4.1,
        "NO2": 7.5,
        "O3": 31.2,
        "CO2": 423.0,
        "PM2_5": 4.1,
        "PM10": 13.4,
        "AQHI": 1.8
      }
    },
    {
      "type": "Feature",
      "geometry": {
        "type": "Point",
        "coordinates": [
          -122.56623,
          47.799727
        ]
      },
      "properties": {
        "timestamp": "2026-06-08T12:45:00Z",
        "CO": 0.113,
        "NO": 4.3,
        "NO2": 6.2,
        "O3": 28.6,
        "CO2": 425.0,
        "PM2_5": 4.9,
        "PM10": 14.3,
        "AQHI": 1.8
      }
    },
    {
      "type": "Feature",
      "geometry": {
        "type": "Point",
        "coordinates": [
          -122.571375,
          47.816021
        ]
      },
      "properties": {
        "timestamp": "2026-06-08T13:00:00Z",
        "CO": 0.101,
        "NO": 3.0,
        "NO2": 6.5,
        "O3": 30.4,
        "CO2": 421.0,
        "PM2_5": 5.2,
        "PM10": 14.8,
        "AQHI": 1.8
      }
    },
    {
      "type": "Feature",
      "geometry": {
        "type": "Point",
        "coordinates": [
          -122.57652,
          47.832315
        ]
      },
      "properties": {
        "timestamp": "2026-06-08T13:15:00Z",
        "CO": 0.101,
        "NO": 2.7,
        "NO2": 4.0,
        "O3": 32.4,
        "CO2": 418.0,
        "PM2_5": 4.6,
        "PM10": 14.4,
        "AQHI": 1.8
      }
    },
    {
      "type": "Feature",
      "geometry": {
        "type": "Point",
        "coordinates": [
          -122.581666,
          47.848609
        ]
      },
      "properties": {
        "timestamp": "2026-06-08T13:30:00Z",
        "CO": 0.114,
        "NO": 2.5,
        "NO2": 5.6,
        "O3": 30.7,
        "CO2": 421.0,
        "PM2_5": 4.1,
        "PM10": 15.3,
        "AQHI": 1.7
      }
    },
    {
      "type": "Feature",
      "geometry": {
        "type": "Point",
        "coordinates": [
          -122.586811,
          47.864902
        ]
      },
      "properties": {
        "timestamp": "2026-06-08T13:45:00Z",
        "CO": 0.093,
        "NO": 2.8,
        "NO2": 4.8,
        "O3": 34.4,
        "CO2": 422.0,
        "PM2_5": 3.8,
        "PM10": 12.5,
        "AQHI": 1.7
      }
    },
    {
      "type": "Feature",
      "geometry": {
        "type": "Point",
        "coordinates": [
          -122.591957,
          47.881196
        ]
      },
      "properties": {
        "timestamp": "2026-06-08T14:00:00Z",
        "CO": 0.095,
        "NO": 2.0,
        "NO2": 4.1,
        "O3": 35.3,
        "CO2": 419.0,
        "PM2_5": 3.9,
        "PM10": 11.6,
        "AQHI": 1.7
      }
    },
    {
      "type": "Feature",
      "geometry": {
        "type": "Point",
        "coordinates": [
          -122.597102,
          47.89749
        ]
      },
      "properties": {
        "timestamp": "2026-06-08T14:15:00Z",
        "CO": 0.099,
        "NO": 1.9,
        "NO2": 4.7,
        "O3": 34.8,
        "CO2": 420.0,
        "PM2_5": 2.8,
        "PM10": 12.0,
        "AQHI": 1.7
      }
    },
    {
      "type": "Feature",
      "geometry": {
        "type": "Point",
        "coordinates": [
          -122.602248,
          47.913784
        ]
      },
      "properties": {
        "timestamp": "2026-06-08T14:30:00Z",
        "CO": 0.103,
        "NO": 2.0,
        "NO2": 3.6,
        "O3": 34.8,
        "CO2": 420.0,
        "PM2_5": 4.0,
        "PM10": 14.8,
        "AQHI": 1.7
      }
    },
    {
      "type": "Feature",
      "geometry": {
        "type": "Point",
        "coordinates": [
          -122.607393,
          47.930078
        ]
      },
      "properties": {
        "timestamp": "2026-06-08T14:45:00Z",
        "CO": 0.103,
        "NO": 1.8,
        "NO2": 5.6,
        "O3": 33.7,
        "CO2": 419.0,
        "PM2_5": 3.6,
        "PM10": 14.3,
        "AQHI": 1.7
      }
    },
    {
      "type": "Feature",
      "geometry": {
        "type": "Point",
        "coordinates": [
          -122.612539,
          47.946372
        ]
      },
      "properties": {
        "timestamp": "2026-06-08T15:00:00Z",
        "CO": 0.101,
        "NO": 2.0,
        "NO2": 4.9,
        "O3": 33.1,
        "CO2": 416.0,
        "PM2_5": 3.7,
        "PM10": 13.2,
        "AQHI": 1.7
      }
    },
    {
      "type": "Feature",
      "geometry": {
        "type": "Point",
        "coordinates": [
          -122.617684,
          47.962666
        ]
      },
      "properties": {
        "timestamp": "2026-06-08T15:15:00Z",
        "CO": 0.097,
        "NO": 2.2,
        "NO2": 4.4,
        "O3": 32.8,
        "CO2": 421.0,
        "PM2_5": 3.4,
        "PM10": 10.9,
        "AQHI": 1.7
      }
    },
    {
      "type": "Feature",
      "geometry": {
        "type": "Point",
        "coordinates": [
          -122.626917,
          47.977906
        ]
      },
      "properties": {
        "timestamp": "2026-06-08T15:30:00Z",
        "CO": 0.102,
        "NO": 1.5,
        "NO2": 3.5,
        "O3": 34.9,
        "CO2": 421.0,
        "PM2_5": 3.1,
        "PM10": 12.4,
        "AQHI": 1.7
      }
    },
    {
      "type": "Feature",
      "geometry": {
        "type": "Point",
        "coordinates": [
          -122.639497,
          47.992282
        ]
      },
      "properties": {
        "timestamp": "2026-06-08T15:45:00Z",
        "CO": 0.105,
        "NO": 0.9,
        "NO2": 4.3,
        "O3": 34.4,
        "CO2": 426.0,
        "PM2_5": 2.2,
        "PM10": 11.2,
        "AQHI": 1.6
      }
    },
    {
      "type": "Feature",
      "geometry": {
        "type": "Point",
        "coordinates": [
          -122.652077,
          48.006659
        ]
      },
      "properties": {
        "timestamp": "2026-06-08T16:00:00Z",
        "CO": 0.098,
        "NO": 1.4,
        "NO2": 5.3,
        "O3": 34.5,
        "CO2": 426.0,
        "PM2_5": 3.2,
        "PM10": 12.5,
        "AQHI": 1.7
      }
    },
    {
      "type": "Feature",
      "geometry": {
        "type": "Point",
        "coordinates": [
          -122.664656,
          48.021036
        ]
      },
      "properties": {
        "timestamp": "2026-06-08T16:15:00Z",
        "CO": 0.098,
        "NO": 0.9,
        "NO2": 4.0,
        "O3": 34.5,
        "CO2": 421.0,
        "PM2_5": 2.0,
        "PM10": 12.2,
        "AQHI": 1.6
      }
    },
    {
      "type": "Feature",
      "geometry": {
        "type": "Point",
        "coordinates": [
          -122.677236,
          48.035412
        ]
      },
      "properties": {
        "timestamp": "2026-06-08T16:30:00Z",
        "CO": 0.099,
        "NO": 2.9,
        "NO2": 3.3,
        "O3": 35.5,
        "CO2": 428.0,
        "PM2_5": 2.9,
        "PM10": 10.1,
        "AQHI": 1.6
      }
    },
    {
      "type": "Feature",
      "geometry": {
        "type": "Point",
        "coordinates": [
          -122.689815,
          48.049789
        ]
      },
      "properties": {
        "timestamp": "2026-06-08T16:45:00Z",
        "CO": 0.097,
        "NO": 1.9,
        "NO2": 4.5,
        "O3": 36.7,
        "CO2": 419.0,
        "PM2_5": 2.4,
        "PM10": 10.4,
        "AQHI": 1.6
      }
    },
    {
      "type": "Feature",
      "geometry": {
        "type": "Point",
        "coordinates": [
          -122.702395,
          48.064166
        ]
      },
      "properties": {
        "timestamp": "2026-06-08T17:00:00Z",
        "CO": 0.106,
        "NO": 1.9,
        "NO2": 2.6,
        "O3": 35.5,
        "CO2": 423.0,
        "PM2_5": 5.0,
        "PM10": 15.5,
        "AQHI": 1.8
      }
    },
    {
      "type": "Feature",
      "geometry": {
        "type": "Point",
        "coordinates": [
          -122.714975,
          48.078542
        ]
      },
      "properties": {
        "timestamp": "2026-06-08T17:15:00Z",
        "CO": 0.102,
        "NO": 0.5,
        "NO2": 3.4,
        "O3": 35.7,
        "CO2": 421.0,
        "PM2_5": 3.9,
        "PM10": 12.8,
        "AQHI": 1.7
      }
    },
    {
      "type": "Feature",
      "geometry": {
        "type": "Point",
        "coordinates": [
          -122.727554,
          48.092919
        ]
      },
      "properties": {
        "timestamp": "2026-06-08T17:30:00Z",
        "CO": 0.094,
        "NO": 0.9,
        "NO2": 3.2,
        "O3": 36.6,
        "CO2": 414.0,
        "PM2_5": 3.3,
        "PM10": 12.7,
        "AQHI": 1.7
      }
    },
    {
      "type": "Feature",
      "geometry": {
        "type": "Point",
        "coordinates": [
          -122.740134,
          48.107296
        ]
      },
      "properties": {
        "timestamp": "2026-06-08T17:45:00Z",
        "CO": 0.108,
        "NO": 1.6,
        "NO2": 4.7,
        "O3": 35.3,
        "CO2": 418.0,
        "PM2_5": 3.0,
        "PM10": 13.4,
        "AQHI": 1.7
      }
    },
    {
      "type": "Feature",
      "geometry": {
        "type": "Point",
        "coordinates": [
          -122.752713,
          48.121672
        ]
      },
      "properties": {
        "timestamp": "2026-06-08T18:00:00Z",
        "CO": 0.105,
        "NO": 1.9,
        "NO2": 6.3,
        "O3": 35.8,
        "CO2": 422.0,
        "PM2_5": 3.7,
        "PM10": 12.7,
        "AQHI": 1.8
      }
    },
    {
      "type": "Feature",
      "geometry": {
        "type": "Point",
        "coordinates": [
          -122.76387,
          48.136518
        ]
      },
      "properties": {
        "timestamp": "2026-06-08T18:15:00Z",
        "CO": 0.112,
        "NO": 2.7,
        "NO2": 3.0,
        "O3": 35.8,
        "CO2": 421.0,
        "PM2_5": 4.0,
        "PM10": 12.1,
        "AQHI": 1.7
      }
    },
    {
      "type": "Feature",
      "geometry": {
        "type": "Point",
        "coordinates": [
          -122.773067,
          48.152008
        ]
      },
      "properties": {
        "timestamp": "2026-06-08T18:30:00Z",
        "CO": 0.089,
        "NO": 0,
        "NO2": 4.0,
        "O3": 36.2,
        "CO2": 421.0,
        "PM2_5": 3.0,
        "PM10": 10.5,
        "AQHI": 1.7
      }
    },
    {
      "type": "Feature",
      "geometry": {
        "type": "Point",
        "coordinates": [
          -122.782265,
          48.167499
        ]
      },
      "properties": {
        "timestamp": "2026-06-08T18:45:00Z",
        "CO": 0.09,
        "NO": 1.8,
        "NO2": 4.3,
        "O3": 37.6,
        "CO2": 422.0,
        "PM2_5": 3.4,
        "PM10": 13.7,
        "AQHI": 1.7
      }
    },
    {
      "type": "Feature",
      "geometry": {
        "type": "Point",
        "coordinates": [
          -122.791462,
          48.182989
        ]
      },
      "properties": {
        "timestamp": "2026-06-08T19:00:00Z",
        "CO": 0.099,
        "NO": 1.0,
        "NO2": 3.6,
        "O3": 35.9,
        "CO2": 415.0,
        "PM2_5": 3.6,
        "PM10": 13.0,
        "AQHI": 1.7
      }
    },
    {
      "type": "Feature",
      "geometry": {
        "type": "Point",
        "coordinates": [
          -122.80066,
          48.198479
        ]
      },
      "properties": {
        "timestamp": "2026-06-08T19:15:00Z",
        "CO": 0.098,
        "NO": 0.9,
        "NO2": 4.3,
        "O3": 38.7,
        "CO2": 420.0,
        "PM2_5": 3.1,
        "PM10": 11.4,
        "AQHI": 1.7
      }
    },
    {
      "type": "Feature",
      "geometry": {
        "type": "Point",
        "coordinates": [
          -122.809857,
          48.21397
        ]
      },
      "properties": {
        "timestamp": "2026-06-08T19:30:00Z",
        "CO": 0.1,
        "NO": 0.5,
        "NO2": 3.9,
        "O3": 36.9,
        "CO2": 425.0,
        "PM2_5": 4.2,
        "PM10": 14.7,
        "AQHI": 1.8
      }
    },
    {
      "type": "Feature",
      "geometry": {
        "type": "Point",
        "coordinates": [
          -122.819055,
          48.22946
        ]
      },
      "properties": {
        "timestamp": "2026-06-08T19:45:00Z",
        "CO": 0.096,
        "NO": 2.0,
        "NO2": 3.2,
        "O3": 37.4,
        "CO2": 421.0,
        "PM2_5": 3.0,
        "PM10": 13.7,
        "AQHI": 1.7
      }
    },
    {
      "type": "Feature",
      "geometry": {
        "type": "Point",
        "coordinates": [
          -122.828252,
          48.244951
        ]
      },
      "properties": {
        "timestamp": "2026-06-08T20:00:00Z",
        "CO": 0.103,
        "NO": 0,
        "NO2": 4.4,
        "O3": 36.5,
        "CO2": 420.0,
        "PM2_5": 3.8,
        "PM10": 13.5,
        "AQHI": 1.7
      }
    },
    {
      "type": "Feature",
      "geometry": {
        "type": "Point",
        "coordinates": [
          -122.83745,
          48.260441
        ]
      },
      "properties": {
        "timestamp": "2026-06-08T20:15:00Z",
        "CO": 0.09,
        "NO": 0.6,
        "NO2": 4.5,
        "O3": 38.6,
        "CO2": 425.0,
        "PM2_5": 4.8,
        "PM10": 12.6,
        "AQHI": 1.8
      }
    },
    {
      "type": "Feature",
      "geometry": {
        "type": "Point",
        "coordinates": [
          -122.846647,
          48.275932
        ]
      },
      "properties": {
        "timestamp": "2026-06-08T20:30:00Z",
        "CO": 0.104,
        "NO": 0,
        "NO2": 5.1,
        "O3": 37.4,
        "CO2": 417.0,
        "PM2_5": 4.9,
        "PM10": 15.5,
        "AQHI": 1.9
      }
    },
    {
      "type": "Feature",
      "geometry": {
        "type": "Point",
        "coordinates": [
          -122.855844,
          48.291422
        ]
      },
      "properties": {
        "timestamp": "2026-06-08T20:45:00Z",
        "CO": 0.091,
        "NO": 1.7,
        "NO2": 3.5,
        "O3": 37.5,
        "CO2": 419.0,
        "PM2_5": 4.5,
        "PM10": 12.7,
        "AQHI": 1.8
      }
    },
    {
      "type": "Feature",
      "geometry": {
        "type": "Point",
        "coordinates": [
          -122.865042,
          48.306913
        ]
      },
      "properties": {
        "timestamp": "2026-06-08T21:00:00Z",
        "CO": 0.102,
        "NO": 3.0,
        "NO2": 3.4,
        "O3": 37.6,
        "CO2": 421.0,
        "PM2_5": 3.0,
        "PM10": 12.5,
        "AQHI": 1.7
      }
    },
    {
      "type": "Feature",
      "geometry": {
        "type": "Point",
        "coordinates": [
          -122.874239,
          48.322403
        ]
      },
      "properties": {
        "timestamp": "2026-06-08T21:15:00Z",
        "CO": 0.1,
        "NO": 0.7,
        "NO2": 5.2,
        "O3": 38.2,
        "CO2": 420.0,
        "PM2_5": 3.1,
        "PM10": 11.1,
        "AQHI": 1.7
      }
    },
    {
      "type": "Feature",
      "geometry": {
        "type": "Point",
        "coordinates": [
          -122.883437,
          48.337894
        ]
      },
      "properties": {
        "timestamp": "2026-06-08T21:30:00Z",
        "CO": 0.106,
        "NO": 1.4,
        "NO2": 4.3,
        "O3": 37.2,
        "CO2": 422.0,
        "PM2_5": 3.4,
        "PM10": 13.2,
        "AQHI": 1.7
      }
    },
    {
      "type": "Feature",
      "geometry": {
        "type": "Point",
        "coordinates": [
          -122.892634,
          48.353384
        ]
      },
      "properties": {
        "timestamp": "2026-06-08T21:45:00Z",
        "CO": 0.099,
        "NO": 2.2,
        "NO2": 4.5,
        "O3": 37.3,
        "CO2": 418.0,
        "PM2_5": 2.8,
        "PM10": 10.8,
        "AQHI": 1.7
      }
    },
    {
      "type": "Feature",
      "geometry": {
        "type": "Point",
        "coordinates": [
          -122.901832,
          48.368874
        ]
      },
      "properties": {
        "timestamp": "2026-06-08T22:00:00Z",
        "CO": 0.095,
        "NO": 2.2,
        "NO2": 4.0,
        "O3": 39.4,
        "CO2": 426.0,
        "PM2_5": 3.5,
        "PM10": 11.1,
        "AQHI": 1.7
      }
    },
    {
      "type": "Feature",
      "geometry": {
        "type": "Point",
        "coordinates": [
          -122.911029,
          48.384365
        ]
      },
      "properties": {
        "timestamp": "2026-06-08T22:15:00Z",
        "CO": 0.098,
        "NO": 1.5,
        "NO2": 3.0,
        "O3": 37.4,
        "CO2": 421.0,
        "PM2_5": 3.2,
        "PM10": 11.4,
        "AQHI": 1.7
      }
    },
    {
      "type": "Feature",
      "geometry": {
        "type": "Point",
        "coordinates": [
          -122.920227,
          48.399855
        ]
      },
      "properties": {
        "timestamp": "2026-06-08T22:30:00Z",
        "CO": 0.096,
        "NO": 3.0,
        "NO2": 3.9,
        "O3": 36.6,
        "CO2": 419.0,
        "PM2_5": 4.2,
        "PM10": 13.1,
        "AQHI": 1.8
      }
    },
    {
      "type": "Feature",
      "geometry": {
        "type": "Point",
        "coordinates": [
          -122.929424,
          48.415346
        ]
      },
      "properties": {
        "timestamp": "2026-06-08T22:45:00Z",
        "CO": 0.103,
        "NO": 2.2,
        "NO2": 4.6,
        "O3": 39.2,
        "CO2": 419.0,
        "PM2_5": 4.4,
        "PM10": 13.3,
        "AQHI": 1.8
      }
    },
    {
      "type": "Feature",
      "geometry": {
        "type": "Point",
        "coordinates": [
          -122.938622,
          48.430836
        ]
      },
      "properties": {
        "timestamp": "2026-06-08T23:00:00Z",
        "CO": 0.099,
        "NO": 2.7,
        "NO2": 4.8,
        "O3": 37.5,
        "CO2": 417.0,
        "PM2_5": 4.2,
        "PM10": 13.1,
        "AQHI": 1.8
      }
    },
    {
      "type": "Feature",
      "geometry": {
        "type": "Point",
        "coordinates": [
          -122.947819,
          48.446327
        ]
      },
      "properties": {
        "timestamp": "2026-06-08T23:15:00Z",
        "CO": 0.096,
        "NO": 1.5,
        "NO2": 4.5,
        "O3": 35.0,
        "CO2": 422.0,
        "PM2_5": 4.2,
        "PM10": 13.1,
        "AQHI": 1.8
      }
    },
    {
      "type": "Feature",
      "geometry": {
        "type": "Point",
        "coordinates": [
          -122.962699,
          48.459524
        ]
      },
      "properties": {
        "timestamp": "2026-06-08T23:30:00Z",
        "CO": 0.107,
        "NO": 2.9,
        "NO2": 4.2,
        "O3": 36.8,
        "CO2": 423.0,
        "PM2_5": 3.5,
        "PM10": 12.3,
        "AQHI": 1.7
      }
    },
    {
      "type": "Feature",
      "geometry": {
        "type": "Point",
        "coordinates": [
          -122.979345,
          48.472009
        ]
      },
      "properties": {
        "timestamp": "2026-06-08T23:45:00Z",
        "CO": 0.1,
        "NO": 3.1,
        "NO2": 5.3,
        "O3": 37.5,
        "CO2": 426.0,
        "PM2_5": 5.5,
        "PM10": 15.4,
        "AQHI": 1.9
      }
    },
    {
      "type": "Feature",
      "geometry": {
        "type": "Point",
        "coordinates": [
          -122.995991,
          48.484493
        ]
      },
      "properties": {
        "timestamp": "2026-06-09T00:00:00Z",
        "CO": 0.099,
        "NO": 4.5,
        "NO2": 6.1,
        "O3": 39.1,
        "CO2": 422.0,
        "PM2_5": 6.3,
        "PM10": 17.0,
        "AQHI": 2.0
      }
    },
    {
      "type": "Feature",
      "geometry": {
        "type": "Point",
        "coordinates": [
          -123.012637,
          48.496978
        ]
      },
      "properties": {
        "timestamp": "2026-06-09T00:15:00Z",
        "CO": 0.107,
        "NO": 5.0,
        "NO2": 5.3,
        "O3": 38.4,
        "CO2": 428.0,
        "PM2_5": 8.3,
        "PM10": 22.6,
        "AQHI": 2.2
      }
    },
    {
      "type": "Feature",
      "geometry": {
        "type": "Point",
        "coordinates": [
          -123.029283,
          48.509462
        ]
      },
      "properties": {
        "timestamp": "2026-06-09T00:30:00Z",
        "CO": 0.108,
        "NO": 6.2,
        "NO2": 7.4,
        "O3": 39.5,
        "CO2": 424.0,
        "PM2_5": 9.2,
        "PM10": 20.3,
        "AQHI": 2.3
      }
    },
    {
      "type": "Feature",
      "geometry": {
        "type": "Point",
        "coordinates": [
          -123.045929,
          48.521947
        ]
      },
      "properties": {
        "timestamp": "2026-06-09T00:45:00Z",
        "CO": 0.1,
        "NO": 5.7,
        "NO2": 7.2,
        "O3": 38.4,
        "CO2": 428.0,
        "PM2_5": 10.0,
        "PM10": 21.8,
        "AQHI": 2.3
      }
    },
    {
      "type": "Feature",
      "geometry": {
        "type": "Point",
        "coordinates": [
          -123.062575,
          48.534431
        ]
      },
      "properties": {
        "timestamp": "2026-06-09T01:00:00Z",
        "CO": 0.117,
        "NO": 7.2,
        "NO2": 9.7,
        "O3": 35.6,
        "CO2": 429.0,
        "PM2_5": 11.2,
        "PM10": 24.9,
        "AQHI": 2.4
      }
    },
    {
      "type": "Feature",
      "geometry": {
        "type": "Point",
        "coordinates": [
          -123.079221,
          48.546916
        ]
      },
      "properties": {
        "timestamp": "2026-06-09T01:15:00Z",
        "CO": 0.122,
        "NO": 8.6,
        "NO2": 8.1,
        "O3": 36.2,
        "CO2": 431.0,
        "PM2_5": 12.0,
        "PM10": 26.6,
        "AQHI": 2.5
      }
    },
    {
      "type": "Feature",
      "geometry": {
        "type": "Point",
        "coordinates": [
          -123.095867,
          48.5594
        ]
      },
      "properties": {
        "timestamp": "2026-06-09T01:30:00Z",
        "CO": 0.114,
        "NO": 9.0,
        "NO2": 8.5,
        "O3": 36.6,
        "CO2": 432.0,
        "PM2_5": 12.4,
        "PM10": 26.7,
        "AQHI": 2.5
      }
    },
    {
      "type": "Feature",
      "geometry": {
        "type": "Point",
        "coordinates": [
          -123.112513,
          48.571885
        ]
      },
      "properties": {
        "timestamp": "2026-06-09T01:45:00Z",
        "CO": 0.111,
        "NO": 6.8,
        "NO2": 8.9,
        "O3": 36.0,
        "CO2": 431.0,
        "PM2_5": 9.2,
        "PM10": 22.8,
        "AQHI": 2.3
      }
    },
    {
      "type": "Feature",
      "geometry": {
        "type": "Point",
        "coordinates": [
          -123.129159,
          48.584369
        ]
      },
      "properties": {
        "timestamp": "2026-06-09T02:00:00Z",
        "CO": 0.104,
        "NO": 6.0,
        "NO2": 8.4,
        "O3": 35.0,
        "CO2": 429.0,
        "PM2_5": 9.4,
        "PM10": 21.1,
        "AQHI": 2.3
      }
    },
    {
      "type": "Feature",
      "geometry": {
        "type": "Point",
        "coordinates": [
          -123.145805,
          48.596854
        ]
      },
      "properties": {
        "timestamp": "2026-06-09T02:15:00Z",
        "CO": 0.115,
        "NO": 6.7,
        "NO2": 5.4,
        "O3": 35.1,
        "CO2": 429.0,
        "PM2_5": 7.1,
        "PM10": 18.0,
        "AQHI": 2.0
      }
    },
    {
      "type": "Feature",
      "geometry": {
        "type": "Point",
        "coordinates": [
          -123.156498,
          48.611696
        ]
      },
      "properties": {
        "timestamp": "2026-06-09T02:30:00Z",
        "CO": 0.107,
        "NO": 4.9,
        "NO2": 5.9,
        "O3": 36.8,
        "CO2": 423.0,
        "PM2_5": 7.6,
        "PM10": 18.7,
        "AQHI": 2.1
      }
    },
    {
      "type": "Feature",
      "geometry": {
        "type": "Point",
        "coordinates": [
          -123.165185,
          48.627333
        ]
      },
      "properties": {
        "timestamp": "2026-06-09T02:45:00Z",
        "CO": 0.106,
        "NO": 3.0,
        "NO2": 5.4,
        "O3": 36.4,
        "CO2": 423.0,
        "PM2_5": 4.9,
        "PM10": 15.7,
        "AQHI": 1.9
      }
    },
    {
      "type": "Feature",
      "geometry": {
        "type": "Point",
        "coordinates": [
          -123.173872,
          48.64297
        ]
      },
      "properties": {
        "timestamp": "2026-06-09T03:00:00Z",
        "CO": 0.11,
        "NO": 2.8,
        "NO2": 5.3,
        "O3": 37.5,
        "CO2": 424.0,
        "PM2_5": 5.0,
        "PM10": 15.2,
        "AQHI": 1.9
      }
    },
    {
      "type": "Feature",
      "geometry": {
        "type": "Point",
        "coordinates": [
          -123.18256,
          48.658607
        ]
      },
      "properties": {
        "timestamp": "2026-06-09T03:15:00Z",
        "CO": 0.106,
        "NO": 2.2,
        "NO2": 3.8,
        "O3": 36.6,
        "CO2": 416.0,
        "PM2_5": 4.2,
        "PM10": 14.2,
        "AQHI": 1.8
      }
    },
    {
      "type": "Feature",
      "geometry": {
        "type": "Point",
        "coordinates": [
          -123.191247,
          48.674244
        ]
      },
      "properties": {
        "timestamp": "2026-06-09T03:30:00Z",
        "CO": 0.107,
        "NO": 2.0,
        "NO2": 4.9,
        "O3": 36.3,
        "CO2": 418.0,
        "PM2_5": 2.9,
        "PM10": 10.7,
        "AQHI": 1.7
      }
    },
    {
      "type": "Feature",
      "geometry": {
        "type": "Point",
        "coordinates": [
          -123.199934,
          48.689881
        ]
      },
      "properties": {
        "timestamp": "2026-06-09T03:45:00Z",
        "CO": 0.094,
        "NO": 2.2,
        "NO2": 4.0,
        "O3": 36.9,
        "CO2": 420.0,
        "PM2_5": 4.4,
        "PM10": 15.1,
        "AQHI": 1.8
      }
    },
    {
      "type": "Feature",
      "geometry": {
        "type": "Point",
        "coordinates": [
          -123.208621,
          48.705518
        ]
      },
      "properties": {
        "timestamp": "2026-06-09T04:00:00Z",
        "CO": 0.097,
        "NO": 1.4,
        "NO2": 3.7,
        "O3": 34.2,
        "CO2": 422.0,
        "PM2_5": 4.4,
        "PM10": 14.1,
        "AQHI": 1.8
      }
    },
    {
      "type": "Feature",
      "geometry": {
        "type": "Point",
        "coordinates": [
          -123.217309,
          48.721156
        ]
      },
      "properties": {
        "timestamp": "2026-06-09T04:15:00Z",
        "CO": 0.098,
        "NO": 2.4,
        "NO2": 2.4,
        "O3": 36.3,
        "CO2": 420.0,
        "PM2_5": 3.1,
        "PM10": 13.4,
        "AQHI": 1.7
      }
    },
    {
      "type": "Feature",
      "geometry": {
        "type": "Point",
        "coordinates": [
          -123.225996,
          48.736793
        ]
      },
      "properties": {
        "timestamp": "2026-06-09T04:30:00Z",
        "CO": 0.105,
        "NO": 1.3,
        "NO2": 4.0,
        "O3": 35.3,
        "CO2": 419.0,
        "PM2_5": 2.6,
        "PM10": 12.5,
        "AQHI": 1.6
      }
    },
    {
      "type": "Feature",
      "geometry": {
        "type": "Point",
        "coordinates": [
          -123.234683,
          48.75243
        ]
      },
      "properties": {
        "timestamp": "2026-06-09T04:45:00Z",
        "CO": 0.105,
        "NO": 2.2,
        "NO2": 3.3,
        "O3": 38.2,
        "CO2": 425.0,
        "PM2_5": 3.6,
        "PM10": 11.9,
        "AQHI": 1.7
      }
    },
    {
      "type": "Feature",
      "geometry": {
        "type": "Point",
        "coordinates": [
          -123.24337,
          48.768067
        ]
      },
      "properties": {
        "timestamp": "2026-06-09T05:00:00Z",
        "CO": 0.096,
        "NO": 1.9,
        "NO2": 3.4,
        "O3": 35.5,
        "CO2": 423.0,
        "PM2_5": 2.5,
        "PM10": 12.9,
        "AQHI": 1.6
      }
    },
    {
      "type": "Feature",
      "geometry": {
        "type": "Point",
        "coordinates": [
          -123.250491,
          48.783932
        ]
      },
      "properties": {
        "timestamp": "2026-06-09T05:15:00Z",
        "CO": 0.108,
        "NO": 0.6,
        "NO2": 3.0,
        "O3": 35.0,
        "CO2": 417.0,
        "PM2_5": 3.3,
        "PM10": 9.8,
        "AQHI": 1.7
      }
    },
    {
      "type": "Feature",
      "geometry": {
        "type": "Point",
        "coordinates": [
          -123.252566,
          48.800531
        ]
      },
      "properties": {
        "timestamp": "2026-06-09T05:30:00Z",
        "CO": 0.099,
        "NO": 3.0,
        "NO2": 3.3,
        "O3": 34.9,
        "CO2": 416.0,
        "PM2_5": 4.0,
        "PM10": 13.1,
        "AQHI": 1.7
      }
    },
    {
      "type": "Feature",
      "geometry": {
        "type": "Point",
        "coordinates": [
          -123.254641,
          48.817131
        ]
      },
      "properties": {
        "timestamp": "2026-06-09T05:45:00Z",
        "CO": 0.11,
        "NO": 1.8,
        "NO2": 3.8,
        "O3": 35.6,
        "CO2": 419.0,
        "PM2_5": 2.6,
        "PM10": 11.5,
        "AQHI": 1.6
      }
    },
    {
      "type": "Feature",
      "geometry": {
        "type": "Point",
        "coordinates": [
          -123.256716,
          48.83373
        ]
      },
      "properties": {
        "timestamp": "2026-06-09T06:00:00Z",
        "CO": 0.1,
        "NO": 1.8,
        "NO2": 4.4,
        "O3": 34.1,
        "CO2": 421.0,
        "PM2_5": 4.8,
        "PM10": 13.5,
        "AQHI": 1.8
      }
    },
    {
      "type": "Feature",
      "geometry": {
        "type": "Point",
        "coordinates": [
          -123.258791,
          48.85033
        ]
      },
      "properties": {
        "timestamp": "2026-06-09T06:15:00Z",
        "CO": 0.109,
        "NO": 1.5,
        "NO2": 3.6,
        "O3": 37.5,
        "CO2": 421.0,
        "PM2_5": 4.6,
        "PM10": 15.1,
        "AQHI": 1.8
      }
    },
    {
      "type": "Feature",
      "geometry": {
        "type": "Point",
        "coordinates": [
          -123.260866,
          48.866929
        ]
      },
      "properties": {
        "timestamp": "2026-06-09T06:30:00Z",
        "CO": 0.092,
        "NO": 1.9,
        "NO2": 3.9,
        "O3": 32.7,
        "CO2": 416.0,
        "PM2_5": 3.7,
        "PM10": 13.5,
        "AQHI": 1.7
      }
    },
    {
      "type": "Feature",
      "geometry": {
        "type": "Point",
        "coordinates": [
          -123.262941,
          48.883529
        ]
      },
      "properties": {
        "timestamp": "2026-06-09T06:45:00Z",
        "CO": 0.103,
        "NO": 1.7,
        "NO2": 3.8,
        "O3": 33.0,
        "CO2": 419.0,
        "PM2_5": 3.0,
        "PM10": 11.6,
        "AQHI": 1.6
      }
    },
    {
      "type": "Feature",
      "geometry": {
        "type": "Point",
        "coordinates": [
          -123.265016,
          48.900128
        ]
      },
      "properties": {
        "timestamp": "2026-06-09T07:00:00Z",
        "CO": 0.102,
        "NO": 1.4,
        "NO2": 4.3,
        "O3": 33.0,
        "CO2": 421.0,
        "PM2_5": 4.1,
        "PM10": 13.8,
        "AQHI": 1.7
      }
    },
    {
      "type": "Feature",
      "geometry": {
        "type": "Point",
        "coordinates": [
          -123.267091,
          48.916727
        ]
      },
      "properties": {
        "timestamp": "2026-06-09T07:15:00Z",
        "CO": 0.105,
        "NO": 1.0,
        "NO2": 4.4,
        "O3": 34.0,
        "CO2": 423.0,
        "PM2_5": 2.8,
        "PM10": 11.6,
        "AQHI": 1.6
      }
    },
    {
      "type": "Feature",
      "geometry": {
        "type": "Point",
        "coordinates": [
          -123.269166,
          48.933327
        ]
      },
      "properties": {
        "timestamp": "2026-06-09T07:30:00Z",
        "CO": 0.109,
        "NO": 2.4,
        "NO2": 4.8,
        "O3": 33.9,
        "CO2": 422.0,
        "PM2_5": 4.5,
        "PM10": 14.2,
        "AQHI": 1.8
      }
    },
    {
      "type": "Feature",
      "geometry": {
        "type": "Point",
        "coordinates": [
          -123.271241,
          48.949926
        ]
      },
      "properties": {
        "timestamp": "2026-06-09T07:45:00Z",
        "CO": 0.105,
        "NO": 2.3,
        "NO2": 5.0,
        "O3": 34.6,
        "CO2": 421.0,
        "PM2_5": 4.0,
        "PM10": 13.0,
        "AQHI": 1.8
      }
    },
    {
      "type": "Feature",
      "geometry": {
        "type": "Point",
        "coordinates": [
          -123.273316,
          48.966526
        ]
      },
      "properties": {
        "timestamp": "2026-06-09T08:00:00Z",
        "CO": 0.109,
        "NO": 2.7,
        "NO2": 6.1,
        "O3": 31.7,
        "CO2": 420.0,
        "PM2_5": 4.5,
        "PM10": 14.3,
        "AQHI": 1.8
      }
    },
    {
      "type": "Feature",
      "geometry": {
        "type": "Point",
        "coordinates": [
          -123.275391,
          48.983125
        ]
      },
      "properties": {
        "timestamp": "2026-06-09T08:15:00Z",
        "CO": 0.108,
        "NO": 4.7,
        "NO2": 5.6,
        "O3": 33.1,
        "CO2": 421.0,
        "PM2_5": 5.5,
        "PM10": 16.4,
        "AQHI": 1.9
      }
    },
    {
      "type": "Feature",
      "geometry": {
        "type": "Point",
        "coordinates": [
          -123.277466,
          48.999725
        ]
      },
      "properties": {
        "timestamp": "2026-06-09T08:30:00Z",
        "CO": 0.111,
        "NO": 4.6,
        "NO2": 5.8,
        "O3": 31.9,
        "CO2": 425.0,
        "PM2_5": 4.9,
        "PM10": 14.9,
        "AQHI": 1.8
      }
    },
    {
      "type": "Feature",
      "geometry": {
        "type": "Point",
        "coordinates": [
          -123.279541,
          49.016324
        ]
      },
      "properties": {
        "timestamp": "2026-06-09T08:45:00Z",
        "CO": 0.103,
        "NO": 5.3,
        "NO2": 6.5,
        "O3": 30.7,
        "CO2": 425.0,
        "PM2_5": 3.9,
        "PM10": 14.0,
        "AQHI": 1.7
      }
    },
    {
      "type": "Feature",
      "geometry": {
        "type": "Point",
        "coordinates": [
          -123.277323,
          49.032849
        ]
      },
      "properties": {
        "timestamp": "2026-06-09T09:00:00Z",
        "CO": 0.117,
        "NO": 5.9,
        "NO2": 6.9,
        "O3": 30.6,
        "CO2": 426.0,
        "PM2_5": 3.9,
        "PM10": 13.4,
        "AQHI": 1.7
      }
    },
    {
      "type": "Feature",
      "geometry": {
        "type": "Point",
        "coordinates": [
          -123.273885,
          49.049352
        ]
      },
      "properties": {
        "timestamp": "2026-06-09T09:15:00Z",
        "CO": 0.118,
        "NO": 6.6,
        "NO2": 8.0,
        "O3": 31.6,
        "CO2": 428.0,
        "PM2_5": 6.8,
        "PM10": 17.8,
        "AQHI": 2.0
      }
    },
    {
      "type": "Feature",
      "geometry": {
        "type": "Point",
        "coordinates": [
          -123.270447,
          49.065854
        ]
      },
      "properties": {
        "timestamp": "2026-06-09T09:30:00Z",
        "CO": 0.114,
        "NO": 7.4,
        "NO2": 9.2,
        "O3": 32.9,
        "CO2": 428.0,
        "PM2_5": 5.7,
        "PM10": 15.3,
        "AQHI": 1.9
      }
    },
    {
      "type": "Feature",
      "geometry": {
        "type": "Point",
        "coordinates": [
          -123.267009,
          49.082357
        ]
      },
      "properties": {
        "timestamp": "2026-06-09T09:45:00Z",
        "CO": 0.11,
        "NO": 9.0,
        "NO2": 9.0,
        "O3": 29.3,
        "CO2": 425.0,
        "PM2_5": 6.1,
        "PM10": 17.4,
        "AQHI": 1.9
      }
    },
    {
      "type": "Feature",
      "geometry": {
        "type": "Point",
        "coordinates": [
          -123.263571,
          49.09886
        ]
      },
      "properties": {
        "timestamp": "2026-06-09T10:00:00Z",
        "CO": 0.117,
        "NO": 8.4,
        "NO2": 10.9,
        "O3": 29.9,
        "CO2": 433.0,
        "PM2_5": 7.9,
        "PM10": 19.7,
        "AQHI": 2.1
      }
    },
    {
      "type": "Feature",
      "geometry": {
        "type": "Point",
        "coordinates": [
          -123.260133,
          49.115363
        ]
      },
      "properties": {
        "timestamp": "2026-06-09T10:15:00Z",
        "CO": 0.12,
        "NO": 10.7,
        "NO2": 11.9,
        "O3": 29.2,
        "CO2": 429.0,
        "PM2_5": 8.6,
        "PM10": 20.4,
        "AQHI": 2.2
      }
    },
    {
      "type": "Feature",
      "geometry": {
        "type": "Point",
        "coordinates": [
          -123.256695,
          49.131866
        ]
      },
      "properties": {
        "timestamp": "2026-06-09T10:30:00Z",
        "CO": 0.127,
        "NO": 11.8,
        "NO2": 13.1,
        "O3": 29.9,
        "CO2": 433.0,
        "PM2_5": 8.8,
        "PM10": 23.3,
        "AQHI": 2.2
      }
    },
    {
      "type": "Feature",
      "geometry": {
        "type": "Point",
        "coordinates": [
          -123.253257,
          49.148369
        ]
      },
      "properties": {
        "timestamp": "2026-06-09T10:45:00Z",
        "CO": 0.139,
        "NO": 13.3,
        "NO2": 12.4,
        "O3": 33.9,
        "CO2": 432.0,
        "PM2_5": 8.5,
        "PM10": 19.9,
        "AQHI": 2.2
      }
    },
    {
      "type": "Feature",
      "geometry": {
        "type": "Point",
        "coordinates": [
          -123.249818,
          49.164872
        ]
      },
      "properties": {
        "timestamp": "2026-06-09T11:00:00Z",
        "CO": 0.142,
        "NO": 13.9,
        "NO2": 12.8,
        "O3": 29.4,
        "CO2": 438.0,
        "PM2_5": 8.9,
        "PM10": 20.1,
        "AQHI": 2.2
      }
    },
    {
      "type": "Feature",
      "geometry": {
        "type": "Point",
        "coordinates": [
          -123.24638,
          49.181374
        ]
      },
      "properties": {
        "timestamp": "2026-06-09T11:15:00Z",
        "CO": 0.132,
        "NO": 13.9,
        "NO2": 14.4,
        "O3": 28.0,
        "CO2": 439.0,
        "PM2_5": 8.8,
        "PM10": 19.4,
        "AQHI": 2.2
      }
    },
    {
      "type": "Feature",
      "geometry": {
        "type": "Point",
        "coordinates": [
          -123.242942,
          49.197877
        ]
      },
      "properties": {
        "timestamp": "2026-06-09T11:30:00Z",
        "CO": 0.133,
        "NO": 15.8,
        "NO2": 14.3,
        "O3": 31.2,
        "CO2": 439.0,
        "PM2_5": 8.9,
        "PM10": 20.4,
        "AQHI": 2.3
      }
    },
    {
      "type": "Feature",
      "geometry": {
        "type": "Point",
        "coordinates": [
          -123.239504,
          49.21438
        ]
      },
      "properties": {
        "timestamp": "2026-06-09T11:45:00Z",
        "CO": 0.139,
        "NO": 14.1,
        "NO2": 16.6,
        "O3": 26.6,
        "CO2": 440.0,
        "PM2_5": 10.9,
        "PM10": 24.3,
        "AQHI": 2.4
      }
    },
    {
      "type": "Feature",
      "geometry": {
        "type": "Point",
        "coordinates": [
          -123.236066,
          49.230883
        ]
      },
      "properties": {
        "timestamp": "2026-06-09T12:00:00Z",
        "CO": 0.133,
        "NO": 14.9,
        "NO2": 15.3,
        "O3": 28.7,
        "CO2": 439.0,
        "PM2_5": 8.9,
        "PM10": 21.3,
        "AQHI": 2.2
      }
    },
    {
      "type": "Feature",
      "geometry": {
        "type": "Point",
        "coordinates": [
          -123.232628,
          49.247386
        ]
      },
      "properties": {
        "timestamp": "2026-06-09T12:15:00Z",
        "CO": 0.135,
        "NO": 13.2,
        "NO2": 14.5,
        "O3": 25.8,
        "CO2": 440.0,
        "PM2_5": 11.2,
        "PM10": 26.7,
        "AQHI": 2.4
      }
    },
    {
      "type": "Feature",
      "geometry": {
        "type": "Point",
        "coordinates": [
          -123.225504,
          49.262608
        ]
      },
      "properties": {
        "timestamp": "2026-06-09T12:30:00Z",
        "CO": 0.134,
        "NO": 14.3,
        "NO2": 15.1,
        "O3": 28.4,
        "CO2": 437.0,
        "PM2_5": 9.6,
        "PM10": 24.5,
        "AQHI": 2.3
      }
    },
    {
      "type": "Feature",
      "geometry": {
        "type": "Point",
        "coordinates": [
          -123.206425,
          49.273673
        ]
      },
      "properties": {
        "timestamp": "2026-06-09T12:45:00Z",
        "CO": 0.135,
        "NO": 13.7,
        "NO2": 14.3,
        "O3": 27.7,
        "CO2": 435.0,
        "PM2_5": 9.2,
        "PM10": 20.6,
        "AQHI": 2.3
      }
    },
    {
      "type": "Feature",
      "geometry": {
        "type": "Point",
        "coordinates": [
          -123.187346,
          49.284739
        ]
      },
      "properties": {
        "timestamp": "2026-06-09T13:00:00Z",
        "CO": 0.132,
        "NO": 14.9,
        "NO2": 14.2,
        "O3": 26.6,
        "CO2": 434.0,
        "PM2_5": 8.9,
        "PM10": 22.2,
        "AQHI": 2.2
      }
    },
    {
      "type": "Feature",
      "geometry": {
        "type": "Point",
        "coordinates": [
          -123.18,
          49.289
        ]
      },
      "properties": {
        "timestamp": "2026-06-09T13:05:46Z",
        "CO": 0.13,
        "NO": 14.2,
        "NO2": 12.5,
        "O3": 26.4,
        "CO2": 440.0,
        "PM2_5": 7.5,
        "PM10": 20.2,
        "AQHI": 2.1
      }
    }
  ]
}